[
  {
    "COMMENT": "GENERATED VIA SPACETRACK.ORG API",
    "ORIGINATOR": "18 SPCS",
    "NORAD_CAT_ID": "54754",
    "OBJECT_NAME": "SWOT",
    "OBJECT_TYPE": "PAYLOAD",
    "CLASSIFICATION_TYPE": "U",
    "INTLDES": "22173A",
    "EPOCH": "2023-04-04 19:39:53",
    "EPOCH_MICROSECONDS": "343360",
    "MEAN_MOTION": "14.09855427",
    "ECCENTRICITY": "0.0001018",
    "INCLINATION": "77.6064",
    "RA_OF_ASC_NODE": "176.0106",
    "ARG_OF_PERICENTER": "213.7104",
    "MEAN_ANOMALY": "146.3988",
    "EPHEMERIS_TYPE": "0",
    "ELEMENT_SET_NO": "999",
    "REV_AT_EPOCH": "1540",
    "BSTAR": "0.00014951",
    "MEAN_MOTION_DOT": "0.0000026",
    "MEAN_MOTION_DDOT": "0",
    "FILE": "3880160",
    "TLE_LINE0": "0 SWOT",
    "TLE_LINE1": "1 54754U 22173A   23094.81936740  .00000260  00000-0  14951-3 0  9997",
    "TLE_LINE2": "2 54754  77.6064 176.0106 0001018 213.7104 146.3988 14.09855427 15400",
    "OBJECT_ID": "2022-173A",
    "OBJECT_NUMBER": "54754",
    "SEMIMAJOR_AXIS": "7238.003",
    "PERIOD": "102.138",
    "APOGEE": "860.605",
    "PERIGEE": "859.132",
    "DECAYED": "0"
  },
  {
    "COMMENT": "GENERATED VIA SPACETRACK.ORG API",
    "ORIGINATOR": "18 SPCS",
    "NORAD_CAT_ID": "54754",
    "OBJECT_NAME": "SWOT",
    "OBJECT_TYPE": "PAYLOAD",
    "CLASSIFICATION_TYPE": "U",
    "INTLDES": "22173A",
    "EPOCH": "2023-04-04 19:39:53",
    "EPOCH_MICROSECONDS": "343360",
    "MEAN_MOTION": "14.09855427",
    "ECCENTRICITY": "0.0001018",
    "INCLINATION": "77.6064",
    "RA_OF_ASC_NODE": "176.0106",
    "ARG_OF_PERICENTER": "213.7104",
    "MEAN_ANOMALY": "146.3988",
    "EPHEMERIS_TYPE": "0",
    "ELEMENT_SET_NO": "999",
    "REV_AT_EPOCH": "1540",
    "BSTAR": "0.00014951",
    "MEAN_MOTION_DOT": "0.0000026",
    "MEAN_MOTION_DDOT": "0",
    "FILE": "3880211",
    "TLE_LINE0": "0 SWOT",
    "TLE_LINE1": "1 54754U 22173A   23094.81936740  .00000260  00000-0  14951-3 0  9997",
    "TLE_LINE2": "2 54754  77.6064 176.0106 0001018 213.7104 146.3988 14.09855427 15400",
    "OBJECT_ID": "2022-173A",
    "OBJECT_NUMBER": "54754",
    "SEMIMAJOR_AXIS": "7238.003",
    "PERIOD": "102.138",
    "APOGEE": "860.605",
    "PERIGEE": "859.132",
    "DECAYED": "0"
  },
  {
    "COMMENT": "GENERATED VIA SPACETRACK.ORG API",
    "ORIGINATOR": "18 SPCS",
    "NORAD_CAT_ID": "54754",
    "OBJECT_NAME": "SWOT",
    "OBJECT_TYPE": "PAYLOAD",
    "CLASSIFICATION_TYPE": "U",
    "INTLDES": "22173A",
    "EPOCH": "2023-04-05 14:23:57",
    "EPOCH_MICROSECONDS": "241248",
    "MEAN_MOTION": "14.09855801",
    "ECCENTRICITY": "0.0001025",
    "INCLINATION": "77.6064",
    "RA_OF_ASC_NODE": "174.9396",
    "ARG_OF_PERICENTER": "213.4016",
    "MEAN_ANOMALY": "146.7076",
    "EPHEMERIS_TYPE": "0",
    "ELEMENT_SET_NO": "999",
    "REV_AT_EPOCH": "1551",
    "BSTAR": "0.00014821",
    "MEAN_MOTION_DOT": "0.00000258",
    "MEAN_MOTION_DDOT": "0",
    "FILE": "3880853",
    "TLE_LINE0": "0 SWOT",
    "TLE_LINE1": "1 54754U 22173A   23095.59996807  .00000258  00000-0  14821-3 0  9996",
    "TLE_LINE2": "2 54754  77.6064 174.9396 0001025 213.4016 146.7076 14.09855801 15515",
    "OBJECT_ID": "2022-173A",
    "OBJECT_NUMBER": "54754",
    "SEMIMAJOR_AXIS": "7238.002",
    "PERIOD": "102.138",
    "APOGEE": "860.609",
    "PERIGEE": "859.125",
    "DECAYED": "0"
  },
  {
    "COMMENT": "GENERATED VIA SPACETRACK.ORG API",
    "ORIGINATOR": "18 SPCS",
    "NORAD_CAT_ID": "54754",
    "OBJECT_NAME": "SWOT",
    "OBJECT_TYPE": "PAYLOAD",
    "CLASSIFICATION_TYPE": "U",
    "INTLDES": "22173A",
    "EPOCH": "2023-04-05 19:30:31",
    "EPOCH_MICROSECONDS": "25376",
    "MEAN_MOTION": "14.09855909",
    "ECCENTRICITY": "0.000103",
    "INCLINATION": "77.6063",
    "RA_OF_ASC_NODE": "174.6474",
    "ARG_OF_PERICENTER": "213.443",
    "MEAN_ANOMALY": "146.6662",
    "EPHEMERIS_TYPE": "0",
    "ELEMENT_SET_NO": "999",
    "REV_AT_EPOCH": "1554",
    "BSTAR": "0.00014664",
    "MEAN_MOTION_DOT": "0.00000255",
    "MEAN_MOTION_DDOT": "0",
    "FILE": "3881153",
    "TLE_LINE0": "0 SWOT",
    "TLE_LINE1": "1 54754U 22173A   23095.81285909  .00000255  00000-0  14664-3 0  9997",
    "TLE_LINE2": "2 54754  77.6063 174.6474 0001030 213.4430 146.6662 14.09855909 15546",
    "OBJECT_ID": "2022-173A",
    "OBJECT_NUMBER": "54754",
    "SEMIMAJOR_AXIS": "7238.002",
    "PERIOD": "102.138",
    "APOGEE": "860.612",
    "PERIGEE": "859.121",
    "DECAYED": "0"
  },
  {
    "COMMENT": "GENERATED VIA SPACETRACK.ORG API",
    "ORIGINATOR": "18 SPCS",
    "NORAD_CAT_ID": "54754",
    "OBJECT_NAME": "SWOT",
    "OBJECT_TYPE": "PAYLOAD",
    "CLASSIFICATION_TYPE": "U",
    "INTLDES": "22173A",
    "EPOCH": "2023-04-05 22:54:53",
    "EPOCH_MICROSECONDS": "554464",
    "MEAN_MOTION": "14.09855934",
    "ECCENTRICITY": "0.0001028",
    "INCLINATION": "77.6064",
    "RA_OF_ASC_NODE": "174.4529",
    "ARG_OF_PERICENTER": "214.3248",
    "MEAN_ANOMALY": "145.7843",
    "EPHEMERIS_TYPE": "0",
    "ELEMENT_SET_NO": "999",
    "REV_AT_EPOCH": "1556",
    "BSTAR": "0.00014415",
    "MEAN_MOTION_DOT": "0.00000251",
    "MEAN_MOTION_DDOT": "0",
    "FILE": "3881472",
    "TLE_LINE0": "0 SWOT",
    "TLE_LINE1": "1 54754U 22173A   23095.95478651  .00000251  00000-0  14415-3 0  9990",
    "TLE_LINE2": "2 54754  77.6064 174.4529 0001028 214.3248 145.7843 14.09855934 15561",
    "OBJECT_ID": "2022-173A",
    "OBJECT_NUMBER": "54754",
    "SEMIMAJOR_AXIS": "7238.002",
    "PERIOD": "102.138",
    "APOGEE": "860.611",
    "PERIGEE": "859.123",
    "DECAYED": "0"
  },
  {
    "COMMENT": "GENERATED VIA SPACETRACK.ORG API",
    "ORIGINATOR": "18 SPCS",
    "NORAD_CAT_ID": "54754",
    "OBJECT_NAME": "SWOT",
    "OBJECT_TYPE": "PAYLOAD",
    "CLASSIFICATION_TYPE": "U",
    "INTLDES": "22173A",
    "EPOCH": "2023-04-05 22:54:53",
    "EPOCH_MICROSECONDS": "554464",
    "MEAN_MOTION": "14.09855933",
    "ECCENTRICITY": "0.0001028",
    "INCLINATION": "77.6064",
    "RA_OF_ASC_NODE": "174.4529",
    "ARG_OF_PERICENTER": "214.3248",
    "MEAN_ANOMALY": "145.7843",
    "EPHEMERIS_TYPE": "0",
    "ELEMENT_SET_NO": "999",
    "REV_AT_EPOCH": "1556",
    "BSTAR": "0.00014415",
    "MEAN_MOTION_DOT": "0.00000251",
    "MEAN_MOTION_DDOT": "0",
    "FILE": "3881771",
    "TLE_LINE0": "0 SWOT",
    "TLE_LINE1": "1 54754U 22173A   23095.95478651  .00000251  00000-0  14415-3 0  9990",
    "TLE_LINE2": "2 54754  77.6064 174.4529 0001028 214.3248 145.7843 14.09855933 15560",
    "OBJECT_ID": "2022-173A",
    "OBJECT_NUMBER": "54754",
    "SEMIMAJOR_AXIS": "7238.002",
    "PERIOD": "102.138",
    "APOGEE": "860.611",
    "PERIGEE": "859.123",
    "DECAYED": "0"
  },
  {
    "COMMENT": "GENERATED VIA SPACETRACK.ORG API",
    "ORIGINATOR": "18 SPCS",
    "NORAD_CAT_ID": "54754",
    "OBJECT_NAME": "SWOT",
    "OBJECT_TYPE": "PAYLOAD",
    "CLASSIFICATION_TYPE": "U",
    "INTLDES": "22173A",
    "EPOCH": "2023-04-07 07:16:28",
    "EPOCH_MICROSECONDS": "367040",
    "MEAN_MOTION": "14.09847514",
    "ECCENTRICITY": "0.0000858",
    "INCLINATION": "77.6071",
    "RA_OF_ASC_NODE": "172.6043",
    "ARG_OF_PERICENTER": "219.4197",
    "MEAN_ANOMALY": "140.6898",
    "EPHEMERIS_TYPE": "0",
    "ELEMENT_SET_NO": "999",
    "REV_AT_EPOCH": "1575",
    "BSTAR": "0.00034619",
    "MEAN_MOTION_DOT": "0.00000606",
    "MEAN_MOTION_DDOT": "0",
    "FILE": "3882300",
    "TLE_LINE0": "0 SWOT",
    "TLE_LINE1": "1 54754U 22173A   23097.30310610  .00000606  00000-0  34619-3 0  9993",
    "TLE_LINE2": "2 54754  77.6071 172.6043 0000858 219.4197 140.6898 14.09847514 15759",
    "OBJECT_ID": "2022-173A",
    "OBJECT_NUMBER": "54754",
    "SEMIMAJOR_AXIS": "7238.031",
    "PERIOD": "102.139",
    "APOGEE": "860.517",
    "PERIGEE": "859.275",
    "DECAYED": "0"
  },
  {
    "COMMENT": "GENERATED VIA SPACETRACK.ORG API",
    "ORIGINATOR": "18 SPCS",
    "NORAD_CAT_ID": "54754",
    "OBJECT_NAME": "SWOT",
    "OBJECT_TYPE": "PAYLOAD",
    "CLASSIFICATION_TYPE": "U",
    "INTLDES": "22173A",
    "EPOCH": "2023-04-07 12:23:02",
    "EPOCH_MICROSECONDS": "256576",
    "MEAN_MOTION": "14.0984782",
    "ECCENTRICITY": "0.0000885",
    "INCLINATION": "77.6069",
    "RA_OF_ASC_NODE": "172.312",
    "ARG_OF_PERICENTER": "218.1452",
    "MEAN_ANOMALY": "141.9643",
    "EPHEMERIS_TYPE": "0",
    "ELEMENT_SET_NO": "999",
    "REV_AT_EPOCH": "1578",
    "BSTAR": "0.00035209",
    "MEAN_MOTION_DOT": "0.00000616",
    "MEAN_MOTION_DDOT": "0",
    "FILE": "3882626",
    "TLE_LINE0": "0 SWOT",
    "TLE_LINE1": "1 54754U 22173A   23097.51599834  .00000616  00000-0  35209-3 0  9990",
    "TLE_LINE2": "2 54754  77.6069 172.3120 0000885 218.1452 141.9643 14.09847820 15784",
    "OBJECT_ID": "2022-173A",
    "OBJECT_NUMBER": "54754",
    "SEMIMAJOR_AXIS": "7238.030",
    "PERIOD": "102.139",
    "APOGEE": "860.535",
    "PERIGEE": "859.254",
    "DECAYED": "0"
  },
  {
    "COMMENT": "GENERATED VIA SPACETRACK.ORG API",
    "ORIGINATOR": "18 SPCS",
    "NORAD_CAT_ID": "54754",
    "OBJECT_NAME": "SWOT",
    "OBJECT_TYPE": "PAYLOAD",
    "CLASSIFICATION_TYPE": "U",
    "INTLDES": "22173A",
    "EPOCH": "2023-04-08 12:13:40",
    "EPOCH_MICROSECONDS": "432800",
    "MEAN_MOTION": "14.09848118",
    "ECCENTRICITY": "0.0000901",
    "INCLINATION": "77.6068",
    "RA_OF_ASC_NODE": "170.9488",
    "ARG_OF_PERICENTER": "215.8554",
    "MEAN_ANOMALY": "144.2542",
    "EPHEMERIS_TYPE": "0",
    "ELEMENT_SET_NO": "999",
    "REV_AT_EPOCH": "1592",
    "BSTAR": "0.0002352",
    "MEAN_MOTION_DOT": "0.00000411",
    "MEAN_MOTION_DDOT": "0",
    "FILE": "3883469",
    "TLE_LINE0": "0 SWOT",
    "TLE_LINE1": "1 54754U 22173A   23098.50949575  .00000411  00000-0  23520-3 0  9997",
    "TLE_LINE2": "2 54754  77.6068 170.9488 0000901 215.8554 144.2542 14.09848118 15921",
    "OBJECT_ID": "2022-173A",
    "OBJECT_NUMBER": "54754",
    "SEMIMAJOR_AXIS": "7238.028",
    "PERIOD": "102.139",
    "APOGEE": "860.546",
    "PERIGEE": "859.241",
    "DECAYED": "0"
  }
]